FLOCK 3P-62             
1 42036U 17008CS  17299.59813077  .00006543  00000-0  27677-3 0  9999
2 42036  97.4812   0.6582 0009626 113.6087 246.6161 15.23508317 37706
FLOCK 3P-38             
1 42037U 17008CT  17299.60933717  .00002775  00000-0  11952-3 0  9998
2 42037  97.4813   0.6392 0009311 112.2726 247.9499 15.23409661 38489
FLOCK 3P-39             
1 42038U 17008CU  17299.60772365  .00003570  00000-0  15286-3 0  9997
2 42038  97.4808   0.6303 0009557 112.2786 247.9465 15.23409799 38434
FLOCK 3P-15             
1 42039U 17008CV  17299.61196069  .00002699  00000-0  11641-3 0  9992
2 42039  97.4812   0.6351 0009437 112.2639 247.9599 15.23382991 37719
FLOCK 3P-13             
1 42040U 17008CW  17299.60648519  .00003186  00000-0  13668-3 0  9998
2 42040  97.4815   0.6481 0009238 113.7306 246.4901 15.23426943 37700
FLOCK 3P-55             
1 42041U 17008CX  17299.51870127  .00003107  00000-0  13359-3 0  9991
2 42041  97.4814   0.6078 0009090 116.5266 243.6903 15.23378301 38531
FLOCK 3P-56             
1 42042U 17008CY  17299.57067279  .00006364  00000-0  26729-3 0  9997
2 42042  97.4809   0.6804 0009009 116.0982 244.1183 15.23763533 38332
FLOCK 3P-81             
1 42043U 17008CZ  17299.96114992  .00002979  00000-0  12814-3 0  9994
2 42043  97.4805   1.0252 0009740  95.7125 264.5219 15.23386549 37776
FLOCK 3P-87             
1 42044U 17008DA  17300.03574082  .00002095  00000-0  91047-4 0  9991
2 42044  97.4816   1.0663 0009847  92.6720 267.5574 15.23372697 37934
FLOCK 3P-29             
1 42045U 17008DB  17300.10301230  .00002193  00000-0  95182-4 0  9996
2 42045  97.4800   1.0689 0009553  88.5117 271.7109 15.23373600 37794
FLOCK 3P-82             
1 42046U 17008DC  17300.10374219  .00004814  00000-0  20478-3 0  9991
2 42046  97.4826   1.1355 0009856  94.6003 265.6248 15.23452900 37845
FLOCK 3P-78             
1 42047U 17008DD  17299.96950123  .00003387  00000-0  14544-3 0  9998
2 42047  97.4853   1.0127 0010198  94.5284 265.7076 15.23348969 37752
FLOCK 3P-74             
1 42048U 17008DE  17299.97791284  .00002420  00000-0  10470-3 0  9992
2 42048  97.4824   1.0091 0010262  94.1880 266.0460 15.23369690 37756
FLOCK 3P-31             
1 42049U 17008DF  17300.11079594  .00003509  00000-0  15058-3 0  9991
2 42049  97.4816   1.0621 0009990  92.6675 267.5706 15.23347041 37236
FLOCK 3P-83             
1 42050U 17008DG  17300.11173489  .00002241  00000-0  97229-4 0  9994
2 42050  97.4857   1.1277 0010257  94.6616 265.5773 15.23361694 38509
FLOCK 3P-72             
1 42051U 17008DH  17299.95975863  .00002173  00000-0  94318-4 0  9990
2 42051  97.4828   1.0376 0009489  93.0193 267.2091 15.23388115 36074
LEMUR-2-REDFERN-GOES    
1 42059U 98067LA  17299.89923078  .00037221  00000-0  40165-3 0  9998
2 42059  51.6416  94.0037 0006428  72.2667 287.9032 15.63255929 36577
LEMUR-2-TRUTNA          
1 42067U 98067LC  17299.92031010  .00081806  00000-0  65297-3 0  9998
2 42067  51.6374  89.6282 0003264  73.0298 287.1192 15.70411696 36465
LEMUR-2-AUSTINTACIOUS   
1 42068U 98067LD  17299.94965979  .00041782  00000-0  42123-3 0  9993
2 42068  51.6411  92.8427 0005592  66.2817 293.8780 15.64934922 36521
LEMUR-2-TRUTNAHD        
1 42069U 98067LE  17299.99458875  .00038703  00000-0  40766-3 0  9991
2 42069  51.6408  93.1587 0005590  69.3654 290.7940 15.63860328 36576
HAVELSAT                
1 42700U 98067LH  17299.65991950  .00031696  00000-0  38143-3 0  9992
2 42700  51.6382  99.1690 0005165 101.2040 258.9534 15.60522233 25438
SOMP 2                  
1 42701U 98067LJ  17299.68152398  .00029706  00000-0  36437-3 0  9994
2 42701  51.6379  99.3157 0005182 100.9407 259.2169 15.60056103 25422
COLUMBIA                
1 42702U 98067LK  17299.67895176  .00095867  00000-0  86048-3 0  9996
2 42702  51.6359  96.2837 0002131  99.0531 261.0706 15.67493551 25392
SGSAT                   
1 42703U 98067LL  17299.70933961  .00068482  00000-0  69105-3 0  9994
2 42703  51.6359  97.2346 0001128 342.0043  18.0911 15.64715447 25377
CXBN-2                  
1 42704U 98067LM  17299.62322363  .00029846  00000-0  36486-3 0  9991
2 42704  51.6384  99.6774 0001217  42.5663 317.5424 15.60153097 25342
ICECUBE                 
1 42705U 98067LN  17299.70303551  .00033327  00000-0  38490-3 0  9995
2 42705  51.6405  98.7259 0001852  32.6414 327.4694 15.61579730 25429
PHOENIX                 
1 42706U 98067LP  17299.67149266  .00030078  00000-0  36551-3 0  9999
2 42706  51.6379  99.2509 0000792  86.3394 273.7690 15.60305781 25341
X-CUBESAT               
1 42707U 98067LQ  17299.66852370  .00032718  00000-0  39473-3 0  9995
2 42707  51.6368  99.2219 0000770  91.1083 268.9998 15.60450439 25330
QBEE50-LTU-OC           
1 42708U 98067LR  17299.67456434  .00031799  00000-0  38604-3 0  9991
2 42708  51.6370  99.2625 0000808  87.1125 272.9961 15.60302271 25299
ALTAIR PATHFINDER       
1 42711U 98067LS  17299.71006917  .00020932  00000-0  27628-3 0  9998
2 42711  51.6376 100.2515 0003777  32.0923 328.0299 15.58335615 24991
SHARC                   
1 42712U 98067LT  17299.65576541  .00009879  00000-0  13658-3 0  9992
2 42712  51.6392 100.6481 0002084  45.0182 315.0979 15.57827435 25220
ZA-AEROSAT              
1 42713U 98067LU  17299.65996695  .00030041  00000-0  37925-3 0  9997
2 42713  51.6379  99.9216 0001613  22.5767 337.5297 15.59301236 24991
LINK                    
1 42714U 98067LV  17299.72360494  .00046157  00000-0  53279-3 0  9993
2 42714  51.6365  98.8362 0001214   8.7366 351.3649 15.61440378 25120
CSUNSAT 1               
1 42715U 98067LW  17299.66193233  .00029244  00000-0  36678-3 0  9994
2 42715  51.6383  99.9313 0003587  18.2061 341.9060 15.59485055 24996
UPSAT                   
1 42716U 98067LX  17299.71110047  .00039128  00000-0  45716-3 0  9998
2 42716  51.6379  98.7618 0003438 108.7154 251.4213 15.61196728 25142
SPACECUBE               
1 42717U 98067LY  17299.68855294  .00031816  00000-0  38822-3 0  9991
2 42717  51.6378  99.3599 0003683 106.1302 254.0096 15.60163004 24378
HOOPOE                  
1 42718U 98067LZ  17299.66766706  .00036792  00000-0  43912-3 0  9993
2 42718  51.6377  99.2207 0003532 106.4067 253.7315 15.60669711 24373
CHALLENGER              
1 42721U 98067MA  17299.70082689  .00049210  00000-0  54959-3 0  9995
2 42721  51.6370  98.6821 0005215  79.7007 280.4574 15.62253967 24087
NJUST-1                 
1 42722U 98067MB  17299.68934000  .00026496  00000-0  33861-3 0  9996
2 42722  51.6380 100.1140 0006565  81.3807 278.7930 15.59029236 24068
UNSW-ECO                
1 42723U 98067MC  17299.70013865  .00037242  00000-0  44614-3 0  9996
2 42723  51.6382  99.4388 0005783  81.0047 279.1601 15.60556102 24057
DUTHSAT                 
1 42724U 98067MD  17299.71756671  .00050231  00000-0  56783-3 0  9990
2 42724  51.6379  98.8025 0004504  84.4460 275.7048 15.61936148 23982
LILACSAT-1              
1 42725U 98067ME  17299.68104984  .00029939  00000-0  37490-3 0  9996
2 42725  51.6380 100.0607 0005315  84.8527 275.3073 15.59506340 23962
NSIGHT-1                
1 42726U 98067MF  17299.69055141  .00020347  00000-0  27792-3 0  9996
2 42726  51.6394 100.8784 0006289  85.7229 274.4482 15.57424985 23968
SNUSAT-1                
1 42727U 98067MG  17299.67907429  .00029060  00000-0  36541-3 0  9993
2 42727  51.6372 100.0354 0006647  41.3081 318.8413 15.59404325 23934
QBITO                   
1 42728U 98067MH  17299.71584303  .00033015  00000-0  40476-3 0  9998
2 42728  51.6396  99.5532 0002845  98.1071 262.0245 15.60022139 23783
AALTO-2                 
1 42729U 98067MJ  17299.71546207  .00034055  00000-0  41664-3 0  9995
2 42729  51.6387  99.5427 0002763  97.2051 262.9257 15.60061302 23792
SUSAT                   
1 42730U 98067MK  17299.66207844  .00031252  00000-0  38702-3 0  9997
2 42730  51.6379  99.9325 0002916  93.3966 266.7360 15.59785763 23775
I-INSPIRE II            
1 42731U 98067ML  17299.68970132  .00039756  00000-0  47082-3 0  9995
2 42731  51.6371  99.3543 0005685  23.8920 336.2336 15.60825952 23838
POLYITAN-2-SAU          
1 42732U 98067MM  17299.70931820  .00032787  00000-0  39914-3 0  9992
2 42732  51.6374  99.4870 0005877  24.2895 335.8374 15.60198095 23833
SNUSAT-1B               
1 42733U 98067MN  17299.66192471  .00030432  00000-0  37733-3 0  9991
2 42733  51.6378  99.9240 0005975  27.8767 332.2545 15.59753906 23826
EXALTA-1                
1 42734U 98067MP  17299.69337883  .00038147  00000-0  45460-3 0  9990
2 42734  51.6372  99.3810 0007065  52.6379 307.5257 15.60672104 23787
AOXIANG-1               
1 42735U 98067MQ  17299.96679660  .00027944  00000-0  35487-3 0  9994
2 42735  51.6397  98.6493 0007686  83.4021  64.4092 15.59157203 25233
BEEAGLESAT              
1 42736U 98067MR  17299.67488551  .00030253  00000-0  37930-3 0  9992
2 42736  51.6376 100.0138 0006777  76.1844 283.9902 15.59458894 23884
ATLANTIS                
1 42737U 98067MS  17299.65441644  .00080982  00000-0  78154-3 0  9990
2 42737  51.6351  97.6098 0003865  66.7207 293.4195 15.65760358 23807
LEMUR-2-ANGELA          
1 42752U 17019B   17299.89000265  .00004678  00000-0  18079-3 0  9999
2 42752  51.6425 129.3178 0011758  96.6944 359.2050 15.28091260 21423
LEMUR-2-JENNYBARNA      
1 42753U 17019C   17299.94823938  .00006189  00000-0  23310-3 0  9999
2 42753  51.6410 128.9182 0011466  96.1604  18.1762 15.28361973 21378
LEMUR-2-ROBMOORE        
1 42754U 17019D   17299.96628480  .00004328  00000-0  16866-3 0  9998
2 42754  51.6410 129.0266 0011828  97.8254  21.3587 15.28008576 21418
LEMUR-2-SPIROVISION     
1 42755U 17019E   17300.08232705  .00006232  00000-0  23536-3 0  9994
2 42755  51.6433 128.3723 0011755  98.5334 345.9831 15.28254760 21325
UCLSAT                  
1 42765U 17036A   17299.67529094  .00003299  00000-0  15102-3 0  9996
2 42765  97.4348 357.9266 0012429 167.1684 192.9870 15.21140006 19208
